ORBCOMM FM24            
1 25478U 98053D   24221.51546709  .00002663  00000+0  95492-3 0  9997
2 25478  45.0089 309.6015 0001430 213.0705 147.0053 14.36066531352469
ORBCOMM FM25            
1 25479U 98053E   24221.55250969  .00003011  00000+0  10737-2 0  9998
2 25479  45.0078 307.6769 0002999 156.7216 203.3768 14.36053956352762
ORBCOMM FM26            
1 25480U 98053F   24221.52612285  .00002141  00000+0  78718-3 0  9997
2 25480  45.0071 302.3198 0005581 163.6086 196.4943 14.35431409352698
ORBCOMM FM27            
1 25481U 98053G   24221.54138701  .00003017  00000+0  10758-2 0  9998
2 25481  45.0061 307.9898 0002542 247.6027 112.4551 14.36042001352698
ORBCOMM FM28            
1 25482U 98053H   24221.50145375  .00002151  00000+0  77480-3 0  9994
2 25482  45.0040 246.3540 0003843 209.8797 150.1831 14.36438013353362
ORBCOMM FM30            
1 25980U 99065A   24221.20127686  .00002854  00000+0  10301-2 0  9991
2 25980  45.0310 129.4696 0005633 250.0467 109.9774 14.35564447289444
ORBCOMM FM31            
1 25981U 99065B   24221.16716254  .00002601  00000+0  94361-3 0  9991
2 25981  45.0223 123.2624 0003383 282.6001  77.4468 14.35553542288998
ORBCOMM FM32            
1 25982U 99065C   24221.21103058  .00002565  00000+0  94943-3 0  9995
2 25982  45.0151 137.4942 0005759 279.2140  80.8056 14.34562935289621
